[{"OBJECT_NAME":"STARLINK-5920","OBJECT_ID":"2023-037X","EPOCH":"2026-03-09T22:11:22.157664","MEAN_MOTION":14.98330041,"ECCENTRICITY":0.00027806,"INCLINATION":69.9981,"RA_OF_ASC_NODE":283.935,"ARG_OF_PERICENTER":270.2214,"MEAN_ANOMALY":89.8627,"EPHEMERIS_TYPE":0,"CLASSIFICATION_TYPE":"U","NORAD_CAT_ID":55935,"ELEMENT_SET_NO":999,"REV_AT_EPOCH":16401,"BSTAR":-3.4794604e-5,"MEAN_MOTION_DOT":-5.08e-6,"MEAN_MOTION_DDOT":0},{"OBJECT_NAME":"ARIANE 2 DEB","OBJECT_ID":"1989-006E","EPOCH":"2026-03-06T14:19:40.495008","MEAN_MOTION":2.28940263,"ECCENTRICITY":0.71554033,"INCLINATION":7.8656,"RA_OF_ASC_NODE":134.7305,"ARG_OF_PERICENTER":317.7824,"MEAN_ANOMALY":56.6202,"EPHEMERIS_TYPE":0,"CLASSIFICATION_TYPE":"U","NORAD_CAT_ID":26727,"ELEMENT_SET_NO":999,"REV_AT_EPOCH":20934,"BSTAR":0.0028928769,"MEAN_MOTION_DOT":3.01e-6,"MEAN_MOTION_DDOT":0}]
